ONEWEB-0058             
1 45161U 20008AG  26068.86958486  .00000732  00000+0  20608-2 0  9992
2 45161  87.8774  56.0539 0002026  91.4651 268.6709 13.10374147295414
ONEWEB-0059             
1 45162U 20008AH  26068.48431132  .00000025  00000+0  35354-4 0  9996
2 45162  87.8793  56.1266 0001708  98.3086 261.8235 13.10378866295262
ONEWEB-0062             
1 45163U 20008AJ  26068.51005049 -.00000062  00000+0 -21502-3 0  9997
2 45163  87.8777  56.1087 0002179  94.4828 265.6548 13.10370224295135
ONEWEB-0065             
1 45164U 20008AK  26068.46425837 -.00000349  00000+0 -10352-2 0  9991
2 45164  87.8776  56.1264 0001725  74.0625 286.0692 13.10375934294822
ONEWEB-0066             
1 45424U 20020A   26068.88460332 -.00000084  00000+0 -27154-3 0  9994
2 45424  87.8871  40.8097 0001740  87.4548 272.6780 13.11418214289665
ONEWEB-0067             
1 45425U 20020B   26068.46426841  .00000113  00000+0  28325-3 0  9998
2 45425  87.8876  40.8027 0001633  80.8430 279.2883 13.11414477289666
ONEWEB-0080             
1 45426U 20020C   26068.85491864 -.00000177  00000+0 -53595-3 0  9998
2 45426  87.8865  40.8133 0002135  88.9469 271.1903 13.11413839289689
ONEWEB-0090             
1 45427U 20020D   26068.87456361 -.00000419  00000+0 -12178-2 0  9994
2 45427  87.8865  40.8102 0001886  84.6088 275.5255 13.11416713289657
ONEWEB-0061             
1 45428U 20020E   26068.37243614  .00000658  00000+0  18195-2 0  9993
2 45428  87.8869  40.8962 0001830  84.2479 275.8858 13.11417765289543
ONEWEB-0081             
1 45429U 20020F   26068.88799142  .00000069  00000+0  16000-3 0  9992
2 45429  87.8868  40.8090 0001624  84.5037 275.6276 13.11417436289726
ONEWEB-0069             
1 45430U 20020G   26068.87696581 -.00000336  00000+0 -98473-3 0  9999
2 45430  87.8866  40.8057 0001761  83.9748 276.1581 13.11418732289650
ONEWEB-0031             
1 45431U 20020H   26068.84900358  .00000070  00000+0  16266-3 0  9990
2 45431  87.8856  40.8290 0001998  85.3669 274.7687 13.11414338289636
ONEWEB-0027             
1 45432U 20020J   26068.82950594  .00000051  00000+0  98599-4 0  9995
2 45432  87.9161  25.5717 0002226  78.4177 281.7204 13.17647611293279
ONEWEB-0064             
1 45433U 20020K   26068.46582600  .00000107  00000+0  26486-3 0  9992
2 45433  87.8856  40.8960 0002010  83.4352 276.7005 13.11414226289616
ONEWEB-0018             
1 45434U 20020L   26068.87951212 -.00000298  00000+0 -87749-3 0  9999
2 45434  87.8867  40.8107 0001799  88.2349 271.8985 13.11418522289610
ONEWEB-0083             
1 45435U 20020M   26068.87018860 -.00000475  00000+0 -13748-2 0  9997
2 45435  87.8870  40.8003 0001887  84.5298 275.6045 13.11416273289654
ONEWEB-0095             
1 45436U 20020N   26068.86099328 -.00000394  00000+0 -11476-2 0  9991
2 45436  87.8867  40.8108 0002202  63.4704 296.6650 13.11416334289650
