[{"OBJECT_NAME":"ONEWEB-0058","OBJECT_ID":"2020-008AG","EPOCH":"2026-03-09T20:52:12.131904","MEAN_MOTION":13.10374147,"ECCENTRICITY":0.0002026,"INCLINATION":87.8774,"RA_OF_ASC_NODE":56.0539,"ARG_OF_PERICENTER":91.4651,"MEAN_ANOMALY":268.6709,"EPHEMERIS_TYPE":0,"CLASSIFICATION_TYPE":"U","NORAD_CAT_ID":45161,"ELEMENT_SET_NO":999,"REV_AT_EPOCH":29541,"BSTAR":0.0020608,"MEAN_MOTION_DOT":7.32e-6,"MEAN_MOTION_DDOT":0},{"OBJECT_NAME":"ONEWEB-0059","OBJECT_ID":"2020-008AH","EPOCH":"2026-03-09T11:37:24.498048","MEAN_MOTION":13.10378866,"ECCENTRICITY":0.00017081,"INCLINATION":87.8793,"RA_OF_ASC_NODE":56.1266,"ARG_OF_PERICENTER":98.3086,"MEAN_ANOMALY":261.8235,"EPHEMERIS_TYPE":0,"CLASSIFICATION_TYPE":"U","NORAD_CAT_ID":45162,"ELEMENT_SET_NO":999,"REV_AT_EPOCH":29526,"BSTAR":3.5354442e-5,"MEAN_MOTION_DOT":2.5e-7,"MEAN_MOTION_DDOT":0},{"OBJECT_NAME":"ONEWEB-0062","OBJECT_ID":"2020-008AJ","EPOCH":"2026-03-09T12:14:28.362336","MEAN_MOTION":13.10370224,"ECCENTRICITY":0.00021794,"INCLINATION":87.8777,"RA_OF_ASC_NODE":56.1087,"ARG_OF_PERICENTER":94.4828,"MEAN_ANOMALY":265.6548,"EPHEMERIS_TYPE":0,"CLASSIFICATION_TYPE":"U","NORAD_CAT_ID":45163,"ELEMENT_SET_NO":999,"REV_AT_EPOCH":29513,"BSTAR":-0.0002150184,"MEAN_MOTION_DOT":-6.2e-7,"MEAN_MOTION_DDOT":0},{"OBJECT_NAME":"ONEWEB-0065","OBJECT_ID":"2020-008AK","EPOCH":"2026-03-09T11:08:31.923168","MEAN_MOTION":13.10375934,"ECCENTRICITY":0.00017255,"INCLINATION":87.8776,"RA_OF_ASC_NODE":56.1264,"ARG_OF_PERICENTER":74.0625,"MEAN_ANOMALY":286.0692,"EPHEMERIS_TYPE":0,"CLASSIFICATION_TYPE":"U","NORAD_CAT_ID":45164,"ELEMENT_SET_NO":999,"REV_AT_EPOCH":29482,"BSTAR":-0.0010351864,"MEAN_MOTION_DOT":-3.49e-6,"MEAN_MOTION_DDOT":0},{"OBJECT_NAME":"ONEWEB-0066","OBJECT_ID":"2020-020A","EPOCH":"2026-03-09T21:13:49.726848","MEAN_MOTION":13.11418214,"ECCENTRICITY":0.000174,"INCLINATION":87.8871,"RA_OF_ASC_NODE":40.8097,"ARG_OF_PERICENTER":87.4548,"MEAN_ANOMALY":272.678,"EPHEMERIS_TYPE":0,"CLASSIFICATION_TYPE":"U","NORAD_CAT_ID":45424,"ELEMENT_SET_NO":999,"REV_AT_EPOCH":28966,"BSTAR":-0.00027154,"MEAN_MOTION_DOT":-8.4e-7,"MEAN_MOTION_DDOT":0},{"OBJECT_NAME":"ONEWEB-0067","OBJECT_ID":"2020-020B","EPOCH":"2026-03-09T11:08:32.790624","MEAN_MOTION":13.11414477,"ECCENTRICITY":0.00016333,"INCLINATION":87.8876,"RA_OF_ASC_NODE":40.8027,"ARG_OF_PERICENTER":80.843,"MEAN_ANOMALY":279.2883,"EPHEMERIS_TYPE":0,"CLASSIFICATION_TYPE":"U","NORAD_CAT_ID":45425,"ELEMENT_SET_NO":999,"REV_AT_EPOCH":28966,"BSTAR":0.00028325221,"MEAN_MOTION_DOT":1.13e-6,"MEAN_MOTION_DDOT":0},{"OBJECT_NAME":"ONEWEB-0080","OBJECT_ID":"2020-020C","EPOCH":"2026-03-09T20:31:04.970496","MEAN_MOTION":13.11413839,"ECCENTRICITY":0.0002135,"INCLINATION":87.8865,"RA_OF_ASC_NODE":40.8133,"ARG_OF_PERICENTER":88.9469,"MEAN_ANOMALY":271.1903,"EPHEMERIS_TYPE":0,"CLASSIFICATION_TYPE":"U","NORAD_CAT_ID":45426,"ELEMENT_SET_NO":999,"REV_AT_EPOCH":28968,"BSTAR":-0.00053595,"MEAN_MOTION_DOT":-1.77e-6,"MEAN_MOTION_DDOT":0},{"OBJECT_NAME":"ONEWEB-0090","OBJECT_ID":"2020-020D","EPOCH":"2026-03-09T20:59:22.295904","MEAN_MOTION":13.11416713,"ECCENTRICITY":0.0001886,"INCLINATION":87.8865,"RA_OF_ASC_NODE":40.8102,"ARG_OF_PERICENTER":84.6088,"MEAN_ANOMALY":275.5255,"EPHEMERIS_TYPE":0,"CLASSIFICATION_TYPE":"U","NORAD_CAT_ID":45427,"ELEMENT_SET_NO":999,"REV_AT_EPOCH":28965,"BSTAR":-0.0012178,"MEAN_MOTION_DOT":-4.19e-6,"MEAN_MOTION_DDOT":0},{"OBJECT_NAME":"ONEWEB-0061","OBJECT_ID":"2020-020E","EPOCH":"2026-03-09T08:56:18.482496","MEAN_MOTION":13.11417765,"ECCENTRICITY":0.00018303,"INCLINATION":87.8869,"RA_OF_ASC_NODE":40.8962,"ARG_OF_PERICENTER":84.2479,"MEAN_ANOMALY":275.8858,"EPHEMERIS_TYPE":0,"CLASSIFICATION_TYPE":"U","NORAD_CAT_ID":45428,"ELEMENT_SET_NO":999,"REV_AT_EPOCH":28954,"BSTAR":0.0018194621,"MEAN_MOTION_DOT":6.58e-6,"MEAN_MOTION_DDOT":0},{"OBJECT_NAME":"ONEWEB-0081","OBJECT_ID":"2020-020F","EPOCH":"2026-03-09T21:18:42.458688","MEAN_MOTION":13.11417436,"ECCENTRICITY":0.0001624,"INCLINATION":87.8868,"RA_OF_ASC_NODE":40.809,"ARG_OF_PERICENTER":84.5037,"MEAN_ANOMALY":275.6276,"EPHEMERIS_TYPE":0,"CLASSIFICATION_TYPE":"U","NORAD_CAT_ID":45429,"ELEMENT_SET_NO":999,"REV_AT_EPOCH":28972,"BSTAR":0.00016,"MEAN_MOTION_DOT":6.9e-7,"MEAN_MOTION_DDOT":0},{"OBJECT_NAME":"ONEWEB-0069","OBJECT_ID":"2020-020G","EPOCH":"2026-03-09T21:02:49.845984","MEAN_MOTION":13.11418732,"ECCENTRICITY":0.0001761,"INCLINATION":87.8866,"RA_OF_ASC_NODE":40.8057,"ARG_OF_PERICENTER":83.9748,"MEAN_ANOMALY":276.1581,"EPHEMERIS_TYPE":0,"CLASSIFICATION_TYPE":"U","NORAD_CAT_ID":45430,"ELEMENT_SET_NO":999,"REV_AT_EPOCH":28965,"BSTAR":-0.00098473,"MEAN_MOTION_DOT":-3.36e-6,"MEAN_MOTION_DDOT":0},{"OBJECT_NAME":"ONEWEB-0031","OBJECT_ID":"2020-020H","EPOCH":"2026-03-09T20:22:33.909312","MEAN_MOTION":13.11414338,"ECCENTRICITY":0.0001998,"INCLINATION":87.8856,"RA_OF_ASC_NODE":40.829,"ARG_OF_PERICENTER":85.3669,"MEAN_ANOMALY":274.7687,"EPHEMERIS_TYPE":0,"CLASSIFICATION_TYPE":"U","NORAD_CAT_ID":45431,"ELEMENT_SET_NO":999,"REV_AT_EPOCH":28963,"BSTAR":0.00016266,"MEAN_MOTION_DOT":7.0e-7,"MEAN_MOTION_DDOT":0},{"OBJECT_NAME":"ONEWEB-0027","OBJECT_ID":"2020-020J","EPOCH":"2026-03-09T19:54:29.313216","MEAN_MOTION":13.17647611,"ECCENTRICITY":0.0002226,"INCLINATION":87.9161,"RA_OF_ASC_NODE":25.5717,"ARG_OF_PERICENTER":78.4177,"MEAN_ANOMALY":281.7204,"EPHEMERIS_TYPE":0,"CLASSIFICATION_TYPE":"U","NORAD_CAT_ID":45432,"ELEMENT_SET_NO":999,"REV_AT_EPOCH":29327,"BSTAR":9.8599e-5,"MEAN_MOTION_DOT":5.1e-7,"MEAN_MOTION_DDOT":0},{"OBJECT_NAME":"ONEWEB-0064","OBJECT_ID":"2020-020K","EPOCH":"2026-03-09T11:10:47.366400","MEAN_MOTION":13.11414226,"ECCENTRICITY":0.00020103,"INCLINATION":87.8856,"RA_OF_ASC_NODE":40.896,"ARG_OF_PERICENTER":83.4352,"MEAN_ANOMALY":276.7005,"EPHEMERIS_TYPE":0,"CLASSIFICATION_TYPE":"U","NORAD_CAT_ID":45433,"ELEMENT_SET_NO":999,"REV_AT_EPOCH":28961,"BSTAR":0.00026485685,"MEAN_MOTION_DOT":1.07e-6,"MEAN_MOTION_DDOT":0},{"OBJECT_NAME":"ONEWEB-0018","OBJECT_ID":"2020-020L","EPOCH":"2026-03-09T21:06:29.847168","MEAN_MOTION":13.11418522,"ECCENTRICITY":0.0001799,"INCLINATION":87.8867,"RA_OF_ASC_NODE":40.8107,"ARG_OF_PERICENTER":88.2349,"MEAN_ANOMALY":271.8985,"EPHEMERIS_TYPE":0,"CLASSIFICATION_TYPE":"U","NORAD_CAT_ID":45434,"ELEMENT_SET_NO":999,"REV_AT_EPOCH":28961,"BSTAR":-0.00087749,"MEAN_MOTION_DOT":-2.98e-6,"MEAN_MOTION_DDOT":0},{"OBJECT_NAME":"ONEWEB-0083","OBJECT_ID":"2020-020M","EPOCH":"2026-03-09T20:53:04.295040","MEAN_MOTION":13.11416273,"ECCENTRICITY":0.0001887,"INCLINATION":87.887,"RA_OF_ASC_NODE":40.8003,"ARG_OF_PERICENTER":84.5298,"MEAN_ANOMALY":275.6045,"EPHEMERIS_TYPE":0,"CLASSIFICATION_TYPE":"U","NORAD_CAT_ID":45435,"ELEMENT_SET_NO":999,"REV_AT_EPOCH":28965,"BSTAR":-0.0013748,"MEAN_MOTION_DOT":-4.75e-6,"MEAN_MOTION_DDOT":0},{"OBJECT_NAME":"ONEWEB-0095","OBJECT_ID":"2020-020N","EPOCH":"2026-03-09T20:39:49.819392","MEAN_MOTION":13.11416334,"ECCENTRICITY":0.0002202,"INCLINATION":87.8867,"RA_OF_ASC_NODE":40.8108,"ARG_OF_PERICENTER":63.4704,"MEAN_ANOMALY":296.665,"EPHEMERIS_TYPE":0,"CLASSIFICATION_TYPE":"U","NORAD_CAT_ID":45436,"ELEMENT_SET_NO":999,"REV_AT_EPOCH":28965,"BSTAR":-0.0011476,"MEAN_MOTION_DOT":-3.94e-6,"MEAN_MOTION_DDOT":0}]
